NAVSTAR 46 (USA 145)    
1 25933U 99055A   26170.75902822 -.00000081  00000+0  00000+0 0  9999
2 25933  51.4609 295.3562 0106620 175.7714 163.3080  2.00562064195627
NAVSTAR 48 (USA 151)    
1 26407U 00040A   26171.26496353  .00000022  00000+0  00000+0 0  9990
2 26407  54.8510 215.0400 0120997 302.4995  43.5641  2.00557702190007
NAVSTAR 49 (USA 154)    
1 26605U 00071A   26170.58065832 -.00000011  00000+0  00000+0 0  9991
2 26605  55.6270  94.8598 0174268 266.7772 229.9724  2.00565343187564
NAVSTAR 51 (USA 166)    
1 27663U 03005A   26171.18931948  .00000022  00000+0  00000+0 0  9994
2 27663  54.8817 214.8496 0147955  53.0813  14.3890  2.00560412171378
NAVSTAR 53 (USA 175)    
1 28129U 03058A   26170.12431619 -.00000098  00000+0  00000+0 0  9997
2 28129  55.0282  23.1951 0001739 342.0440  17.9953  1.92678421164504
NAVSTAR 54 (USA 177)    
1 28190U 04009A   26171.39974618 -.00000066  00000+0  00000+0 0  9998
2 28190  54.8268 275.5574 0116273 173.2219 199.2524  2.00554615163016
NAVSTAR 55 (USA 178)    
1 28361U 04023A   26171.38696196 -.00000032  00000+0  00000+0 0  9998
2 28361  54.8661  86.5822 0159849 302.0896 241.5084  2.00557079161105
NAVSTAR 56 (USA 180)    
1 28474U 04045A   26171.33763056 -.00000093  00000+0  00000+0 0  9999
2 28474  55.1338 324.7691 0169871 316.4883  76.0859  2.00556004158493
NAVSTAR 57 (USA 183)    
1 28874U 05038A   26171.32618741 -.00000062  00000+0  00000+0 0  9991
2 28874  54.8753 273.0507 0127903 296.1835  51.9478  2.00565445151892
NAVSTAR 58 (USA 190)    
1 29486U 06042A   26171.12285683  .00000065  00000+0  00000+0 0  9992
2 29486  54.7112 151.2224 0106591  54.4858  45.3479  2.00569680144450
NAVSTAR 59 (USA 192)    
1 29601U 06052A   26170.91136060  .00000023  00000+0  00000+0 0  9996
2 29601  54.9346 213.8981 0084895  90.8140 270.2258  2.00558132143469
NAVSTAR 60 (USA 196)    
1 32260U 07047A   26170.71783059 -.00000039  00000+0  00000+0 0  9998
2 32260  54.0970  79.9613 0166853  87.4321 274.4926  2.00555058136867
